BEIDOU-2 IGSO-1         
1 36828U 10036A   26064.71564830 -.00000126  00000+0  00000+0 0  9997
2 36828  54.2927 163.8986 0054017 218.9744 143.1840  1.00252203 57065
BEIDOU-2 G4             
1 37210U 10057A   26066.61595219 -.00000113  00000+0  00000+0 0  9998
2 37210   3.3946  69.5351 0008659 212.2543 265.2875  1.00272448 56279
BEIDOU-2 IGSO-2         
1 37256U 10068A   26063.55016868 -.00000178  00000+0  00000+0 0  9999
2 37256  47.7317 273.1244 0047330 213.1251 341.1802  1.00258965 55745
BEIDOU-2 IGSO-3         
1 37384U 11013A   26058.90884667 -.00000154  00000+0  00000+0 0  9999
2 37384  62.2642  41.1818 0035029 190.8154 358.7681  1.00294022 54567
BEIDOU-2 IGSO-4         
1 37763U 11038A   26064.72437745 -.00000100  00000+0  00000+0 0  9996
2 37763  54.5899 166.6081 0154581 230.9953 121.0281  1.00265577 53603
BEIDOU-2 IGSO-5         
1 37948U 11073A   26066.49097997 -.00000140  00000+0  00000+0 0  9991
2 37948  47.8624 272.8005 0108648 221.1571 303.1286  1.00272115 52115
BEIDOU-2 G5             
1 38091U 12008A   26066.62785891  .00000056  00000+0  00000+0 0  9997
2 38091   3.3204  70.2971 0013987 254.8079 125.0679  1.00267557 51351
BEIDOU-2 M3             
1 38250U 12018A   26064.01894681 -.00000067  00000+0  00000+0 0  9997
2 38250  55.8459 308.3876 0021147 279.6506  80.1690  1.86229821 94007
BEIDOU-2 M4             
1 38251U 12018B   26066.09892081 -.00000070  00000+0  00000+0 0  9994
2 38251  55.7448 307.5395 0012535 286.7509  73.1654  1.86229605 94041
BEIDOU-2 M6             
1 38775U 12050B   26065.27214328 -.00000035  00000+0  00000+0 0  9993
2 38775  56.4548  66.2956 0013995 341.9106  18.0562  1.86231015 91390
BEIDOU-2 G6             
1 38953U 12059A   26066.09736209 -.00000176  00000+0  00000+0 0  9994
2 38953   4.1630  74.6201 0010745 304.6741 264.5150  1.00269187 48881
BEIDOU-3S IGSO-1S       
1 40549U 15019A   26065.60071583 -.00000164  00000+0  00000+0 0  9997
2 40549  49.3862 296.6971 0035764 190.6092 349.7460  1.00273571 40045
BEIDOU-3S M2S           
1 40748U 15037A   26064.15514271 -.00000065  00000+0  00000+0 0  9993
2 40748  54.9621 305.6294 0008821 278.3568  81.6004  1.86231809 72184
BEIDOU-3S M1S           
1 40749U 15037B   26061.69084880 -.00000053  00000+0  00000+0 0  9995
2 40749  54.9610 305.7025 0004647  29.9008 330.1863  1.86253746 72142
BEIDOU-2 IGSO-6         
1 41434U 16021A   26065.88576131 -.00000149  00000+0  00000+0 0  9997
2 41434  60.0901  39.0533 0059780 233.3750 306.7860  1.00278256 36458
BEIDOU-2 G7             
1 41586U 16037A   26066.31654309 -.00000354  00000+0  00000+0 0  9993
2 41586   1.4687  68.2513 0007965 343.1007 338.0775  1.00266181  5869
BEIDOU-3 M1             
1 43001U 17069A   26063.96368704 -.00000029  00000+0  00000+0 0  9991
2 43001  56.6017  66.5157 0012381 309.6653  50.2473  1.86231070 56664
